[{"OBJECT_NAME":"BB 2","OBJECT_ID":"2023-050J","EPOCH":"2026-03-09T22:07:12.923904","MEAN_MOTION":13.82406708,"ECCENTRICITY":0.00102033,"INCLINATION":81.0051,"RA_OF_ASC_NODE":175.6256,"ARG_OF_PERICENTER":200.1323,"MEAN_ANOMALY":159.9431,"EPHEMERIS_TYPE":0,"CLASSIFICATION_TYPE":"U","NORAD_CAT_ID":56170,"ELEMENT_SET_NO":999,"REV_AT_EPOCH":14781,"BSTAR":0.00021631056,"MEAN_MOTION_DOT":2.45e-6,"MEAN_MOTION_DDOT":0},{"OBJECT_NAME":"METEOR 2-20","OBJECT_ID":"1990-086A","EPOCH":"2026-03-09T22:13:46.221888","MEAN_MOTION":13.84452784,"ECCENTRICITY":0.00124144,"INCLINATION":82.521,"RA_OF_ASC_NODE":276.7195,"ARG_OF_PERICENTER":307.855,"MEAN_ANOMALY":52.1486,"EPHEMERIS_TYPE":0,"CLASSIFICATION_TYPE":"U","NORAD_CAT_ID":20826,"ELEMENT_SET_NO":999,"REV_AT_EPOCH":79058,"BSTAR":2.8851715e-5,"MEAN_MOTION_DOT":4.7e-7,"MEAN_MOTION_DDOT":0}]
